OBJECT_NAME,OBJECT_ID,EPOCH,MEAN_MOTION,ECCENTRICITY,INCLINATION,RA_OF_ASC_NODE,ARG_OF_PERICENTER,MEAN_ANOMALY,EPHEMERIS_TYPE,CLASSIFICATION_TYPE,NORAD_CAT_ID,ELEMENT_SET_NO,REV_AT_EPOCH,BSTAR,MEAN_MOTION_DOT,MEAN_MOTION_DDOT
ONEWEB-0369,2021-090S,2026-06-18T14:56:23.257824,13.19725297,.0001789,87.9170,304.6879,98.7363,261.3973,0,U,49295,999,22660,.14557E-3,.71E-6,0
ONEWEB-0370,2021-090T,2026-06-18T12:51:54.002880,13.20771031,.0002232,87.9195,274.1713,104.9259,255.2121,0,U,49296,999,23004,.18762E-3,.89E-6,0
ONEWEB-0371,2021-090U,2026-06-18T15:07:45.162048,13.19724854,.000189,87.9175,304.6788,102.5348,257.5996,0,U,49297,999,22664,.6103E-4,.37E-6,0
ONEWEB-0372,2021-090V,2026-06-18T16:15:27.912096,13.20692323,.0001864,87.9197,274.1449,102.4395,257.6947,0,U,49298,999,23003,-.23964E-1,-.9709E-4,0
ONEWEB-0373,2021-090W,2026-06-18T13:13:43.464000,13.20771427,.0002082,87.9194,274.1701,99.8087,260.3281,0,U,49299,999,23120,.17199E-3,.83E-6,0
ONEWEB-0374,2021-090X,2026-06-18T13:33:33.452064,13.14503495,.0002122,87.8971,289.4226,84.3634,275.7737,0,U,49300,999,22774,.57659E-3,.227E-5,0
ONEWEB-0375,2021-090Y,2026-06-18T12:56:45.640032,13.20771879,.0002259,87.9195,274.1638,87.3495,272.7897,0,U,49301,999,23070,.20243E-3,.95E-6,0
ONEWEB-0376,2021-090Z,2026-06-18T07:48:46.338048,13.19724709,.0001703,87.9178,304.7395,102.4740,257.6583,0,U,49302,999,22660,.21032E-3,.97E-6,0
ONEWEB-0377,2021-090AA,2026-06-18T16:15:43.680960,13.20795299,.0002133,87.9201,274.1399,96.0168,264.1208,0,U,49303,999,23071,.44011E-2,.1803E-4,0
ONEWEB-0378,2021-090AB,2026-06-18T13:06:38.768256,13.20770719,.000198,87.9193,274.1697,96.0763,264.0596,0,U,49304,999,22996,.24239E-3,.112E-5,0
ONEWEB-0379,2021-090AC,2026-06-18T13:26:42.163008,13.14503062,.0001896,87.8969,289.4343,96.7325,263.4021,0,U,49305,999,22774,.79575E-3,.308E-5,0
ONEWEB-0380,2021-090AD,2026-06-18T15:00:56.450304,13.19725574,.0002077,87.9173,304.6847,96.9803,263.1566,0,U,49306,999,22661,.21374E-3,.99E-6,0
ONEWEB-0381,2021-090AE,2026-06-18T16:10:41.611008,13.20772036,.0002039,87.9197,274.1441,92.7023,267.4343,0,U,49307,999,23002,-.12296E-3,-.37E-6,0
ONEWEB-0382,2021-090AF,2026-06-18T14:02:11.813280,13.20770416,.0001984,87.9194,274.1559,91.6745,268.4615,0,U,49308,999,23000,.66607E-4,.4E-6,0
ONEWEB-0383,2021-090AG,2026-06-18T15:07:10.003296,13.14501703,.0001829,87.8972,289.4117,96.1094,264.0244,0,U,49309,999,22778,.67653E-3,.264E-5,0
ONEWEB-0384,2021-090AH,2026-06-18T13:45:46.898208,13.20812518,.0001919,87.9200,274.2019,87.0994,273.0359,0,U,49310,999,23001,.13824E-3,.69E-6,0
ONEWEB-0385,2021-090AJ,2026-06-18T13:52:30.527040,13.20772835,.0002013,87.9195,274.1626,94.6663,265.4701,0,U,49311,999,22998,.22351E-3,.104E-5,0
ONEWEB-0386,2021-090AK,2026-06-18T16:05:50.718624,13.20772688,.0001918,87.9199,274.1351,92.8446,267.2906,0,U,49312,999,23001,.29492E-3,.133E-5,0
ONEWEB-0387,2021-090AL,2026-06-18T13:54:56.084256,13.20772677,.0002306,87.9186,274.1752,95.1093,265.0303,0,U,49313,999,23000,.13549E-3,.68E-6,0
ONEWEB-0388,2021-090AM,2026-06-18T14:54:06.986016,13.19725650,.0001881,87.9171,304.6837,94.6422,265.4926,0,U,49314,999,22660,.20585E-3,.95E-6,0
ONEWEB-0389,2021-132A,2026-06-18T11:45:04.284288,13.17648914,.0002147,87.9131,5.6089,81.7081,278.4294,0,U,50469,999,21825,-.15113E-4,.7E-7,0
ONEWEB-0390,2021-132B,2026-06-18T11:47:30.068736,13.17649132,.0002022,87.9132,5.6094,94.0755,266.0608,0,U,50470,999,21825,.12551E-4,.18E-6,0
ONEWEB-0391,2021-132C,2026-06-18T11:49:55.955136,13.17648867,.0002689,87.9132,5.6190,83.8757,276.2681,0,U,50471,999,21825,.53435E-5,.15E-6,0
ONEWEB-0392,2021-132D,2026-06-18T14:23:01.749120,13.17649195,.0002209,87.9141,5.5661,82.7214,277.4169,0,U,50472,999,21830,.12093E-3,.6E-6,0
ONEWEB-0393,2021-132E,2026-06-18T01:02:20.688864,13.17649679,.00020174,87.9132,5.6939,84.9097,275.2265,0,U,50473,999,21822,.12815985E-4,.18E-6,0
ONEWEB-0394,2021-132F,2026-06-18T16:35:47.810976,13.18688685,.0001825,87.9172,335.1424,88.2489,271.8852,0,U,50474,999,22179,.25443E-3,.113E-5,0
ONEWEB-0395,2021-132G,2026-06-18T14:48:00.369216,13.11417884,.0002038,87.8882,20.7829,89.0162,271.1199,0,U,50475,999,21590,-.17838E-2,-.619E-5,0
ONEWEB-0396,2021-132H,2026-06-18T16:26:04.096032,13.18685451,.0001914,87.9173,335.1565,87.8112,272.3239,0,U,50476,999,22183,.97453E-4,.51E-6,0
ONEWEB-0397,2021-132J,2026-06-18T16:47:55.425984,13.18686097,.0001826,87.9172,335.1536,85.1178,275.0163,0,U,50477,999,22181,.13299E-3,.65E-6,0
ONEWEB-0398,2021-132K,2026-06-18T12:11:46.199904,13.11414637,.0001979,87.8891,20.7949,94.0227,266.1127,0,U,50478,999,21578,.10432E-2,.382E-5,0
ONEWEB-0399,2021-132L,2026-06-18T08:12:30.834720,13.11416688,.0002127,87.8893,20.8389,74.2663,285.8700,0,U,50479,999,21575,.13021E-2,.474E-5,0
